2023-091J               
1 57174U 23091J   26136.59232062  .00001951  00000+0  11188-3 0  9993
2 57174  97.5080 190.1406 0011747 254.7937 105.1995 15.13698651158855
CUBEBEL 2 (EU11S)       
1 57175U 23091K   26136.56887758  .00009959  00000+0  36282-3 0  9997
2 57175  97.5070 199.5200 0009238 218.2902 141.7682 15.28361449159475
SITRO-AIS 5 (KATYS)     
1 57176U 23091L   26136.59237058  .00010418  00000+0  37553-3 0  9997
2 57176  97.5080 200.2073 0011053 206.1606 153.9076 15.28679005159517
ZORKIY-2M 1             
1 57177U 23091M   26136.62679718  .00005248  00000+0  24314-3 0  9991
2 57177  97.5111 195.6993 0012463 220.7654 139.2649 15.20463362159200
CUBESX-HSE 3 (RS42S)    
1 57178U 23091N   26136.47008551  .00010779  00000+0  36902-3 0  9997
2 57178  97.5111 201.6749 0010740 196.2563 163.8334 15.30357150159572
MONITOR-3 (RS58S)       
1 57180U 23091Q   26136.62299824  .00008309  00000+0  31426-3 0  9994
2 57180  97.5104 199.8511 0011400 203.2358 156.8367 15.27160824159470
MONITOR-4 (RS57S)       
1 57182U 23091S   26136.60401192  .00008654  00000+0  32620-3 0  9997
2 57182  97.5097 199.8010 0011350 203.7052 156.3666 15.27257708159472
MONITOR-2 (RS39S)       
1 57184U 23091U   26136.62166114  .00003671  00000+0  18061-3 0  9990
2 57184  97.5093 195.1124 0010379 215.2691 144.7857 15.18595415159161
SVYATOBOR 1 (RS60S)     
1 57187U 23091X   26136.13189248  .00006683  00000+0  26226-3 0  9990
2 57187  97.5109 199.7830 0009258 195.3969 164.6989 15.26029477159421
HORS 1                  
1 57188U 23091Y   26136.57851510  .00007322  00000+0  28621-3 0  9999
2 57188  97.5086 199.9983 0008777 193.1735 166.9275 15.26133111159490
VIZARD-METEO (RS38S)    
1 57189U 23091Z   26136.60601925  .00014868  00000+0  44015-3 0  9995
2 57189  97.5109 205.4824 0008021 172.8453 187.2905 15.34955898159845
SITRO-AIS 6 (CHIRKIN)   
1 57192U 23091AC  26136.63106313  .00008114  00000+0  32467-3 0  9998
2 57192  97.5087 199.5292 0011207 209.4748 150.5859 15.25292433159479
SITRO-AIS 8 (ANOKHIN)   
1 57193U 23091AD  26136.59784623  .00012600  00000+0  41952-3 0  9994
2 57193  97.5074 201.6767 0010387 201.4964 158.5842 15.31221224159611
SITRO-AIS 7 (FARTUSHNIY)
1 57194U 23091AE  26136.62791414  .00007749  00000+0  31294-3 0  9991
2 57194  97.5085 199.3671 0011033 210.4667 149.5931 15.24996552159467
AVION KALUGA 650        
1 57195U 23091AF  26136.63234952  .00004465  00000+0  21038-3 0  9999
2 57195  97.5109 196.3415 0009629 212.3786 147.6859 15.19992204159236
HORS 2                  
1 57196U 23091AG  26136.60511494  .00011258  00000+0  37755-3 0  9997
2 57196  97.5107 203.2229 0008414 184.4691 175.6477 15.31035032159699
A-SEANSAT-PG1           
1 57197U 23091AH  26136.61794118  .00015720  00000+0  45303-3 0  9991
2 57197  97.5098 205.5522 0007790 180.0036 180.1208 15.35792465159867
SITRO-AIS 10 (BURDAEV)  
1 57199U 23091AK  26136.62845341  .00016701  00000+0  45784-3 0  9992
2 57199  97.5098 206.4456 0007366 173.8701 186.2635 15.37342599159911
SITRO-AIS 9 (SHCHUKIN)  
1 57201U 23091AM  26136.58012320  .00016897  00000+0  46995-3 0  9995
2 57201  97.5096 206.1501 0007593 174.7866 185.3459 15.36887600159892
UTMN 2 (RS27S)          
1 57203U 23091AP  26136.57064274  .00010526  00000+0  35117-3 0  9998
2 57203  97.5105 203.3714 0008452 180.3811 179.7425 15.31221410159704
SITRO-AIS 12 (SMIRENNIY)
1 57204U 23091AQ  26136.57665207  .00016508  00000+0  45506-3 0  9991
2 57204  97.5109 206.5941 0007386 168.8093 191.3317 15.37172032159918
SITRO-AIS 11 (SHEFFER)  
1 57208U 23091AU  26136.46833030  .00017709  00000+0  48186-3 0  9995
2 57208  97.5107 206.7108 0007278 168.6423 191.4987 15.37561776159913
H2SAT (HEINRICH HERTZ)  
1 57213U 23093A   26136.24489488  .00000000  00000+0  00000+0 0  9998
2 57213   0.0087 287.3488 0000724 196.6935 198.7720  1.00271164 10598
KUZGTU 1 (RS47S)        
1 57217U 23091AV  26136.63027112  .00009748  00000+0  34728-3 0  9991
2 57217  97.5083 200.8050 0010821 199.5083 160.5744 15.29086137159552
QIANKUN-1               
1 57422U 23103B   26136.11582044  .00045896  25880-5  55191-4 0  9997
2 57422  96.1609 183.1757 0026752 122.6160 237.7713 16.07654172162148
FENGYUN 3F              
1 57490U 23111A   26136.61709821  .00000015  00000+0  27388-4 0  9992
2 57490  98.6842 207.2119 0001310 113.7190 246.4125 14.19933126144386
HJ-2F                   
1 57519U 23116A   26136.63059314  .00006489  00000+0  28815-3 0  9992
2 57519  97.3845 142.4107 0009912 142.8385 217.3539 15.21843600153959
XRISM                   
1 57800U 23137A   26136.50999669  .00003278  00000+0  17978-3 0  9991
2 57800  31.0013 204.7489 0007607   4.1665 355.9036 15.12182517148069
METEOR-M2 4             
1 59051U 24039A   26136.59982340 -.00000020  00000+0  10721-4 0  9993
2 59051  98.6994  96.2986 0005904 260.6579  99.3931 14.22426021114778
