OBJECT_NAME,OBJECT_ID,EPOCH,MEAN_MOTION,ECCENTRICITY,INCLINATION,RA_OF_ASC_NODE,ARG_OF_PERICENTER,MEAN_ANOMALY,EPHEMERIS_TYPE,CLASSIFICATION_TYPE,NORAD_CAT_ID,ELEMENT_SET_NO,REV_AT_EPOCH,BSTAR,MEAN_MOTION_DOT,MEAN_MOTION_DDOT
2023-091J,2023-091J,2026-05-16T14:12:56.501568,15.13698651,.00117473,97.5080,190.1406,254.7937,105.1995,0,U,57174,999,15885,.11187557E-3,.1951E-4,0
CUBEBEL 2 (EU11S),2023-091K,2026-05-16T13:39:11.022912,15.28361449,.00092388,97.5070,199.5200,218.2902,141.7682,0,U,57175,999,15947,.36282321E-3,.9959E-4,0
SITRO-AIS 5 (KATYS),2023-091L,2026-05-16T14:13:00.818112,15.28679005,.00110538,97.5080,200.2073,206.1606,153.9076,0,U,57176,999,15951,.3755279E-3,.10418E-3,0
ZORKIY-2M 1,2023-091M,2026-05-16T15:02:35.276352,15.20463362,.00124634,97.5111,195.6993,220.7654,139.2649,0,U,57177,999,15920,.24313696E-3,.5248E-4,0
CUBESX-HSE 3 (RS42S),2023-091N,2026-05-16T11:16:55.388064,15.30357150,.00107402,97.5111,201.6749,196.2563,163.8334,0,U,57178,999,15957,.36902321E-3,.10779E-3,0
MONITOR-3 (RS58S),2023-091Q,2026-05-16T14:57:07.047936,15.27160824,.00114005,97.5104,199.8511,203.2358,156.8367,0,U,57180,999,15947,.31426436E-3,.8309E-4,0
MONITOR-4 (RS57S),2023-091S,2026-05-16T14:29:46.629888,15.27257708,.00113503,97.5097,199.8010,203.7052,156.3666,0,U,57182,999,15947,.32619699E-3,.8654E-4,0
MONITOR-2 (RS39S),2023-091U,2026-05-16T14:55:11.522496,15.18595415,.00103799,97.5093,195.1124,215.2691,144.7857,0,U,57184,999,15916,.18060604E-3,.3671E-4,0
SVYATOBOR 1 (RS60S),2023-091X,2026-05-16T03:09:55.510272,15.26029477,.00092586,97.5109,199.7830,195.3969,164.6989,0,U,57187,999,15942,.26225902E-3,.6683E-4,0
HORS 1,2023-091Y,2026-05-16T13:53:03.704640,15.26133111,.00087779,97.5086,199.9983,193.1735,166.9275,0,U,57188,999,15949,.28620783E-3,.7322E-4,0
VIZARD-METEO (RS38S),2023-091Z,2026-05-16T14:32:40.063200,15.34955898,.0008021,97.5109,205.4824,172.8453,187.2905,0,U,57189,999,15984,.44014541E-3,.14868E-3,0
SITRO-AIS 6 (CHIRKIN),2023-091AC,2026-05-16T15:08:43.854432,15.25292433,.0011207,97.5087,199.5292,209.4748,150.5859,0,U,57192,999,15947,.32466642E-3,.8114E-4,0
SITRO-AIS 8 (ANOKHIN),2023-091AD,2026-05-16T14:20:53.914272,15.31221224,.00103879,97.5074,201.6767,201.4964,158.5842,0,U,57193,999,15961,.41952415E-3,.126E-3,0
SITRO-AIS 7 (FARTUSHNIY),2023-091AE,2026-05-16T15:04:11.781696,15.24996552,.00110333,97.5085,199.3671,210.4667,149.5931,0,U,57194,999,15946,.3129397E-3,.7749E-4,0
AVION KALUGA 650,2023-091AF,2026-05-16T15:10:34.998528,15.19992204,.00096297,97.5109,196.3415,212.3786,147.6859,0,U,57195,999,15923,.21038183E-3,.4465E-4,0
HORS 2,2023-091AG,2026-05-16T14:31:21.930816,15.31035032,.00084146,97.5107,203.2229,184.4691,175.6477,0,U,57196,999,15969,.37755127E-3,.11258E-3,0
A-SEANSAT-PG1,2023-091AH,2026-05-16T14:49:50.117952,15.35792465,.00077906,97.5098,205.5522,180.0036,180.1208,0,U,57197,999,15986,.45302871E-3,.1572E-3,0
SITRO-AIS 10 (BURDAEV),2023-091AK,2026-05-16T15:04:58.374624,15.37342599,.0007366,97.5098,206.4456,173.8701,186.2635,0,U,57199,999,15991,.45783952E-3,.16701E-3,0
SITRO-AIS 9 (SHCHUKIN),2023-091AM,2026-05-16T13:55:22.644480,15.36887600,.00075937,97.5096,206.1501,174.7866,185.3459,0,U,57201,999,15989,.46995436E-3,.16897E-3,0
UTMN 2 (RS27S),2023-091AP,2026-05-16T13:41:43.532736,15.31221410,.00084526,97.5105,203.3714,180.3811,179.7425,0,U,57203,999,15970,.35117093E-3,.10526E-3,0
SITRO-AIS 12 (SMIRENNIY),2023-091AQ,2026-05-16T13:50:22.738848,15.37172032,.0007386,97.5109,206.5941,168.8093,191.3317,0,U,57204,999,15991,.45505818E-3,.16508E-3,0
SITRO-AIS 11 (SHEFFER),2023-091AU,2026-05-16T11:14:23.737920,15.37561776,.00072786,97.5107,206.7108,168.6423,191.4987,0,U,57208,999,15991,.48185903E-3,.17709E-3,0
H2SAT (HEINRICH HERTZ),2023-093A,2026-05-16T05:52:38.917632,1.00271164,.0000724,0.0087,287.3488,196.6935,198.7720,0,U,57213,999,1059,0,0,0
KUZGTU 1 (RS47S),2023-091AV,2026-05-16T15:07:35.424768,15.29086137,.00108214,97.5083,200.8050,199.5083,160.5744,0,U,57217,999,15955,.34727974E-3,.9748E-4,0
QIANKUN-1,2023-103B,2026-05-16T02:46:46.886016,16.07654172,.00267523,96.1609,183.1757,122.6160,237.7713,0,U,57422,999,16214,.55190505E-4,.45896E-3,.2587967E-5
FENGYUN 3F,2023-111A,2026-05-16T14:48:37.285344,14.19933126,.00013104,98.6842,207.2119,113.7190,246.4125,0,U,57490,999,14438,.2738825E-4,.15E-6,0
HJ-2F,2023-116A,2026-05-16T15:08:03.247296,15.21843600,.00099126,97.3845,142.4107,142.8385,217.3539,0,U,57519,999,15395,.28815155E-3,.6489E-4,0
XRISM,2023-137A,2026-05-16T12:14:23.714880,15.12182517,.00076068,31.0013,204.7489,4.1665,355.9036,0,U,57800,999,14806,.17977581E-3,.3278E-4,0
METEOR-M2 4,2024-039A,2026-05-16T14:23:44.741760,14.22426021,.00059048,98.6994,96.2986,260.6579,99.3931,0,U,59051,999,11477,.10720776E-4,-.2E-6,0
